      2.10          N: GNSS NAV DATA                        RINEX VERSION / TYPE
fic2rin                                 06/29/2020 00:17:25 PGM / RUN BY / DATE
                                                            END OF HEADER
18 20  6 28  8  0  0.0 2.322727814317e-04 1.011812855722e-11 0.000000000000e+00
    1.760000000000e+02 2.687500000000e+01 4.391611499675e-09-2.878983550387e+00
    1.469627022743e-06 6.628386909142e-04 6.495043635368e-06 5.153722383499e+03
    2.880000000000e+04-3.539025783539e-08 2.466941599071e+00-1.490116119385e-08
    9.642992667294e-01 2.553437500000e+02 2.583734521199e+00-8.146410759278e-09
    3.153702792951e-10 1.000000000000e+00 2.112000000000e+03 0.000000000000e+00
    2.400000000000e+00 0.000000000000e+00-7.916241884232e-09 4.320000000000e+02
    2.160000000000e+04 4.000000000000e+00
 4 20  6 28  8  0  0.0-1.080459915102e-04-4.774847184308e-12 0.000000000000e+00
    1.540000000000e+02-2.118750000000e+01 4.491258507516e-09-2.292872800887e+00
   -1.367181539536e-06 7.732697995380e-04 1.176819205284e-05 5.153670484543e+03
    2.880000000000e+04 3.725290298462e-08-1.713974350163e+00-1.303851604462e-08
    9.596613790056e-01 1.534062500000e+02-2.619346201415e+00-7.963903157104e-09
    2.464388365953e-11 1.000000000000e+00 2.112000000000e+03 0.000000000000e+00
    2.400000000000e+00 0.000000000000e+00-4.190951585770e-09 4.100000000000e+02
    2.208000000000e+04 4.000000000000e+00
10 20  6 28  7 59 44.0-3.841952420771e-04-1.091393642128e-11 0.000000000000e+00
    2.100000000000e+01-5.384375000000e+01 4.569833209039e-09 7.556459192056e-01
   -2.836808562279e-06 5.653163418174e-03 5.753710865974e-06 5.153667633057e+03
    2.878400000000e+04-3.539025783539e-08-2.796087411532e+00 8.009374141693e-08
    9.661529550972e-01 2.725000000000e+02-2.636965929084e+00-8.258558287816e-09
   -7.500312418118e-12 1.000000000000e+00 2.112000000000e+03 0.000000000000e+00
    2.400000000000e+00 0.000000000000e+00 2.328306436539e-09 2.100000000000e+01
    2.277000000000e+04 4.000000000000e+00
32 20  6 28  7 59 44.0 3.078687004745e-04 6.593836587854e-12 0.000000000000e+00
    1.100000000000e+01-2.809375000000e+01 4.630550023852e-09-6.266153450214e-01
   -1.344829797745e-06 4.056647885591e-03 1.033209264278e-05 5.153732984543e+03
    2.878400000000e+04 1.676380634308e-08-1.753618561138e+00 7.823109626770e-08
    9.565127667561e-01 1.799062500000e+02-2.429815353917e+00-8.053906906122e-09
    4.000166622996e-11 1.000000000000e+00 2.112000000000e+03 0.000000000000e+00
    2.400000000000e+00 0.000000000000e+00 4.656612873077e-10 1.100000000000e+01
    2.310000000000e+04 4.000000000000e+00
15 20  6 28  7 59 44.0-2.212291583419e-04 2.614797267597e-12 0.000000000000e+00
    0.000000000000e+00-5.384375000000e+01 5.198430821224e-09-2.146310110271e+00
   -3.064051270485e-06 1.237838855013e-02 1.007504761219e-05 5.153708978653e+03
    2.878400000000e+04 1.173466444016e-07-1.852517455531e+00-1.322478055954e-07
    9.279846777838e-01 1.614375000000e+02 8.860058485114e-01-8.172840431609e-09
    9.000374901741e-11 1.000000000000e+00 2.112000000000e+03 0.000000000000e+00
    2.400000000000e+00 0.000000000000e+00-1.071020960808e-08 0.000000000000e+00
    2.388000000000e+04 4.000000000000e+00
 2 20  6 28  7 59 44.0-4.790108650923e-04-5.798028723802e-12 0.000000000000e+00
    2.900000000000e+01 3.415625000000e+01 4.302322066126e-09 3.080382489038e+00
    1.899898052216e-06 1.972043502610e-02 7.528811693192e-06 5.153728513718e+03
    2.878400000000e+04 2.793967723846e-07 2.373242117414e+00-9.126961231232e-08
    9.596183063086e-01 2.290625000000e+02-1.621220103765e+00-7.794253233361e-09
    3.450143712334e-10 1.000000000000e+00 2.112000000000e+03 0.000000000000e+00
    2.400000000000e+00 0.000000000000e+00-1.769512891769e-08 2.900000000000e+01
    2.598000000000e+04 4.000000000000e+00
29 20  6 28  7 59 44.0-1.380131579936e-04-8.753886504564e-12 0.000000000000e+00
    5.000000000000e+00-1.071875000000e+01 3.816944705354e-09-9.680661593613e-01
   -5.681067705154e-07 1.579087693244e-03 9.534880518913e-06 5.153565668106e+03
    2.878400000000e+04-3.539025783539e-08 1.464595213904e+00 6.705522537231e-08
    9.853651466307e-01 2.092187500000e+02 1.996535183636e+00-7.752108620726e-09
   -1.578637185147e-10 1.000000000000e+00 2.112000000000e+03 0.000000000000e+00
    2.400000000000e+00 0.000000000000e+00-9.778887033463e-09 5.000000000000e+00
    2.601000000000e+04 4.000000000000e+00
 2 20  6 28  9 59 44.0-4.790527746081e-04-5.798028723802e-12 0.000000000000e+00
    4.300000000000e+01 4.228125000000e+01 4.425541484424e-09-2.152689793611e+00
    2.246350049973e-06 1.972146681510e-02 7.454305887222e-06 5.153726303101e+03
    3.598400000000e+04 4.135072231293e-07 2.373186191519e+00 7.450580596924e-08
    9.596207201234e-01 2.340000000000e+02-1.621186570757e+00-7.872827934884e-09
    3.125130174216e-10 1.000000000000e+00 2.112000000000e+03 0.000000000000e+00
    2.400000000000e+00 0.000000000000e+00-1.769512891769e-08 4.300000000000e+01
    2.880000000000e+04 4.000000000000e+00
10 20  6 28  9 59 44.0-3.842739388347e-04-1.091393642128e-11 0.000000000000e+00
    2.200000000000e+01-4.850000000000e+01 4.582333729736e-09 1.806104003687e+00
   -2.512708306313e-06 5.652753752656e-03 5.133450031281e-06 5.153664613724e+03
    3.598400000000e+04-5.960464477539e-08-2.796146767971e+00 3.725290298462e-08
    9.661527766212e-01 2.824062500000e+02-2.637238162047e+00-8.251057975398e-09
   -2.714398779890e-11 1.000000000000e+00 2.112000000000e+03 0.000000000000e+00
    2.400000000000e+00 0.000000000000e+00 2.328306436539e-09 2.200000000000e+01
    2.880000000000e+04 4.000000000000e+00
29 20  6 28  9 59 44.0-1.380755566061e-04-8.640199666843e-12 0.000000000000e+00
    6.000000000000e+00-1.662500000000e+01 3.758727994680e-09 8.252449768229e-02
   -8.717179298401e-07 1.581261632964e-03 1.037865877151e-05 5.153569828033e+03
    3.598400000000e+04-4.284083843231e-08 1.464540007764e+00-7.078051567078e-08
    9.853636047150e-01 1.932812500000e+02 1.996185160004e+00-7.749965674321e-09
   -2.721541934574e-10 1.000000000000e+00 2.112000000000e+03 0.000000000000e+00
    2.400000000000e+00 0.000000000000e+00-9.778887033463e-09 6.000000000000e+00
    2.880000000000e+04 4.000000000000e+00
15 20  6 28  9 59 44.0-2.212105318904e-04 2.614797267597e-12 0.000000000000e+00
    5.100000000000e+01-4.806250000000e+01 5.239861118391e-09-1.096216023215e+00
   -2.246350049973e-06 1.237813860644e-02 1.036748290062e-05 5.153707361221e+03
    3.598400000000e+04 2.663582563400e-07-1.852575893256e+00 1.620501279831e-07
    9.279839580281e-01 1.565625000000e+02 8.860754819490e-01-8.417493479533e-09
   -6.750281176306e-11 1.000000000000e+00 2.112000000000e+03 0.000000000000e+00
    2.400000000000e+00 0.000000000000e+00-1.071020960808e-08 5.100000000000e+01
    2.880000000000e+04 4.000000000000e+00
32 20  6 28  9 59 44.0 3.079161979258e-04 6.593836587854e-12 0.000000000000e+00
    3.900000000000e+01-4.018750000000e+01 4.610906348471e-09 4.235378278334e-01
   -2.168118953705e-06 4.054990829900e-03 1.047551631927e-05 5.153729869843e+03
    3.598400000000e+04-5.960464477539e-08-1.753676361031e+00 1.005828380585e-07
    9.565130593397e-01 1.786250000000e+02-2.429822491494e+00-8.030334495665e-09
    7.143154683922e-12 1.000000000000e+00 2.112000000000e+03 0.000000000000e+00
    2.400000000000e+00 0.000000000000e+00 4.656612873077e-10 3.900000000000e+01
    2.880000000000e+04 4.000000000000e+00
 1 20  6 28 10  0  0.0 1.797219738364e-05 6.593836587854e-12 0.000000000000e+00
    6.400000000000e+01 2.487500000000e+01 3.965165165045e-09-2.393728639332e+00
    1.335516571999e-06 1.000222214498e-02 6.727874279022e-06 5.153708370209e+03
    3.600000000000e+04 5.587935447693e-09 2.450127317523e+00-5.587935447693e-08
    9.806959290533e-01 2.611562500000e+02 7.959796693025e-01-7.782109870398e-09
    3.153702792951e-10 1.000000000000e+00 2.112000000000e+03 0.000000000000e+00
    2.400000000000e+00 0.000000000000e+00 5.122274160385e-09 6.400000000000e+01
    2.880000000000e+04 4.000000000000e+00
 8 20  6 28 10  0  0.0-3.911601379514e-05-1.364242052659e-12 0.000000000000e+00
    1.300000000000e+01-8.781250000000e+00 4.191603168525e-09-1.209646436915e-01
   -6.314367055893e-07 5.348701844923e-03 8.817762136459e-06 5.153690204620e+03
    3.600000000000e+04 8.940696716309e-08 1.379554715100e+00 2.421438694000e-08
    9.693662809908e-01 2.157812500000e+02-5.977958866553e-02-8.038191965817e-09
   -3.110843864848e-10 1.000000000000e+00 2.112000000000e+03 0.000000000000e+00
    2.400000000000e+00 0.000000000000e+00 5.122274160385e-09 1.300000000000e+01
    2.880000000000e+04 4.000000000000e+00
 6 20  6 28 10  0  0.0-2.954425290227e-04-5.570655048359e-12 0.000000000000e+00
    2.900000000000e+01 3.071875000000e+01 4.121957410357e-09-2.200646306575e+00
    1.534819602966e-06 1.834017806686e-03 7.268041372299e-06 5.153565912247e+03
    3.600000000000e+04 6.891787052155e-08 2.441881884056e+00 6.891787052155e-08
    9.802422898603e-01 2.517500000000e+02-1.057886100768e+00-8.045335120501e-09
    2.757257707994e-10 1.000000000000e+00 2.112000000000e+03 0.000000000000e+00
    2.400000000000e+00 0.000000000000e+00 4.190951585770e-09 2.900000000000e+01
    2.880000000000e+04 4.000000000000e+00
 5 20  6 28 10  0  0.0-1.554377377033e-05-7.958078640513e-13 0.000000000000e+00
    8.900000000000e+01-4.728125000000e+01 4.886989277005e-09 5.367215496583e-01
   -2.330169081688e-06 5.975402309559e-03 5.317851901054e-06 5.153683385849e+03
    3.600000000000e+04-1.192092895508e-07-2.825442275972e+00 1.229345798492e-07
    9.531299778951e-01 2.729375000000e+02 8.106529541494e-01-8.457137988029e-09
   -3.964450849577e-11 1.000000000000e+00 2.112000000000e+03 0.000000000000e+00
    2.400000000000e+00 0.000000000000e+00-1.117587089539e-08 8.900000000000e+01
    2.880000000000e+04 4.000000000000e+00
